IRIDIUM 8               
1 24792U 97020A   17168.51562011  .00000083  00000-0  22449-4 0  9992
2 24792  86.3951 318.5476 0002277  93.7915 266.3541 14.34213909 53016
IRIDIUM 7               
1 24793U 97020B   17168.50924974  .00000082  00000-0  22109-4 0  9994
2 24793  86.3956 318.8343 0002226  92.9839 267.1611 14.34218825 53017
IRIDIUM 6               
1 24794U 97020C   17168.57263939  .00000044  00000-0  85184-5 0  9990
2 24794  86.3954 318.7380 0002175  93.1256 267.0189 14.34213592 53010
IRIDIUM 5               
1 24795U 97020D   17168.49659961  .00000102  00000-0  29317-4 0  9996
2 24795  86.3950 318.7814 0002107  93.1956 266.9481 14.34213587 53287
IRIDIUM 4               
1 24796U 97020E   17168.49287480  .00000154  00000-0  46933-4 0  9990
2 24796  86.3950 317.7162 0002272  92.8438 330.0845 14.35159510 53314
IRIDIUM 914             
1 24836U 97030A   17168.54075150  .00000120  00000-0  32555-4 0  9999
2 24836  86.3927 334.4565 0003822  99.3656 260.7974 14.38762689186894
IRIDIUM 12              
1 24837U 97030B   17168.52840833 -.00000094  00000-0 -40707-4 0  9996
2 24837  86.3942 349.9507 0002118  87.8988 353.1359 14.34214473 46715
IRIDIUM 10              
1 24839U 97030D   17168.50373889 -.00000068  00000-0 -31371-4 0  9996
2 24839  86.3941 349.9405 0002146  88.0273 291.1900 14.34215937 46982
IRIDIUM 13              
1 24840U 97030E   17168.51907486 -.00000080  00000-0 -35753-4 0  9997
2 24840  86.3943 350.0744 0002072  91.6691 268.4742 14.34215612 46999
IRIDIUM 16              
1 24841U 97030F   17168.47941929  .00000110  00000-0  30677-4 0  9995
2 24841  86.4028 349.8933 0000550 359.0638   1.0558 14.36716394 47365
IRIDIUM 911             
1 24842U 97030G   17168.59387724  .00000137  00000-0  33412-4 0  9995
2 24842  86.4454 350.6291 0016758  90.0358 270.2764 14.44963807 53014
IRIDIUM 15              
1 24869U 97034A   17168.58599572  .00000088  00000-0  22338-4 0  9993
2 24869  86.4185  21.9167 0002270  75.3504 284.7946 14.38616935 43726
IRIDIUM 17              
1 24870U 97034B   17168.58747497  .00000098  00000-0  26903-4 0  9999
2 24870  86.3962  20.0117 0001811 140.2741 219.8589 14.35760587 44239
IRIDIUM 920             
1 24871U 97034C   17168.30318954  .00000115  00000-0  30640-4 0  9995
2 24871  86.3969   6.3151 0011225 350.8039   9.2952 14.39474126 46378
IRIDIUM 18              
1 24872U 97034D   17168.57967181  .00000098  00000-0  25627-4 0  9996
2 24872  86.4211  21.9135 0002247  69.0019 291.1419 14.38624719 43940
IRIDIUM 921             
1 24873U 97034E   17168.24169087  .00000801  00000-0  45400-4 0  9993
2 24873  86.3948  65.9639 0008878  32.2056 327.9723 15.11356865 88102
IRIDIUM 26              
1 24903U 97043A   17168.39058378  .00000040  00000-0  70820-5 0  9993
2 24903  86.3982 254.6957 0002176  89.7434  27.5949 14.35259336 38003
IRIDIUM 25              
1 24904U 97043B   17168.28048269  .00000207  00000-0  66797-4 0  9992
2 24904  86.3972 255.3724 0002266  91.7562 268.3893 14.34211926 37844
IRIDIUM 46              
1 24905U 97043C   17168.57225457  .00000168  00000-0  52791-4 0  9996
2 24905  86.4000 255.2265 0002235  81.1536 278.9913 14.34217145 37880
IRIDIUM 23              
1 24906U 97043D   17168.29803840  .00000180  00000-0  57281-4 0  9997
2 24906  86.3986 255.4146 0002415  90.4110 327.5130 14.34215548 37858
IRIDIUM 22              
1 24907U 97043E   17168.61030940  .00000175  00000-0  55582-4 0  9993
2 24907  86.3983 255.9039 0002349  92.7360 267.4105 14.34216222 37900
DUMMY MASS 1            
1 24925U 97048A   17168.58652650  .00000074  00000-0  53692-5 0  9991
2 24925  86.3358  43.2354 0008836  52.9686 307.2345 14.85135606 71404
DUMMY MASS 2            
1 24926U 97048B   17168.62507641  .00000064  00000-0  41951-5 0  9990
2 24926  86.3358  44.3336 0009812  58.1032 302.1145 14.84903701 71258
IRIDIUM 29              
1 24944U 97051A   17168.39090607 -.00000005  00000-0 -86870-5 0  9993
2 24944  86.3965 286.7794 0002372  91.4643 268.6825 14.34605247 34466
IRIDIUM 32              
1 24945U 97051B   17168.36005217  .00000144  00000-0  44222-4 0  9990
2 24945  86.3961 287.0141 0002362  93.7739 266.3726 14.34214076 34442
IRIDIUM 33              
1 24946U 97051C   17168.39253356  .00000081  00000-0  22357-4 0  9998
2 24946  86.3881 286.6345 0006095 232.4253 127.6389 14.33555689 34064
IRIDIUM 28              
1 24948U 97051E   17168.40623889  .00000093  00000-0  25484-4 0  9991
2 24948  86.3971 286.0043 0001921  90.9059 269.2357 14.35553332 34613
IRIDIUM 30              
1 24949U 97051F   17168.56305026 -.00000042  00000-0 -21955-4 0  9994
2 24949  86.3982 287.0562 0001568  92.8787 267.2588 14.34215831 34240
IRIDIUM 31              
1 24950U 97051G   17168.55667212  .00000021  00000-0  44699-6 0  9990
2 24950  86.3961 287.0263 0002233  94.8495 265.2956 14.34213250 34548
IRIDIUM 19              
1 24965U 97056A   17168.61077284  .00000080  00000-0  21376-4 0  9992
2 24965  86.3951 318.5193 0002244  93.5788 266.5665 14.34213449 32615
IRIDIUM 35              
1 24966U 97056B   17168.41413991  .00000061  00000-0  14775-4 0  9994
2 24966  86.3950 318.5955 0002229  94.1517 265.9934 14.34213280 32560
IRIDIUM 36              
1 24967U 97056C   17168.48075908  .00000109  00000-0  30898-4 0  9991
2 24967  86.3964 317.6242 0002258  95.9552 264.1902 14.35607294 32902
IRIDIUM 37              
1 24968U 97056D   17168.45854835  .00000091  00000-0  25539-4 0  9999
2 24968  86.3952 318.7634 0002272  93.9023 266.2433 14.34213834 32571
IRIDIUM 34              
1 24969U 97056E   17168.54734412  .00000087  00000-0  23931-4 0  9997
2 24969  86.3952 318.6631 0002234  94.7983 265.3468 14.34213834 32590
IRIDIUM 43              
1 25039U 97069A   17168.62285006  .00096978  64033-6  59614-3 0  9991
2 25039  86.4059  19.3964 0318236  43.0735 319.4947 15.31101665 26723
IRIDIUM 41              
1 25040U 97069B   17168.59862997  .00000075  00000-0  19796-4 0  9998
2 25040  86.3962  21.7898 0002175  82.5489 277.5954 14.34217886 26071
IRIDIUM 40              
1 25041U 97069C   17168.59824363  .00020993 -85986-6  20363-3 0  9999
2 25041  86.3899  17.2730 0280000 277.8313  79.1237 15.29955312 27019
IRIDIUM 39              
1 25042U 97069D   17168.56993605  .00000105  00000-0  23777-4 0  9996
2 25042  86.3919  19.0526 0017459 316.7955  43.1877 14.46160189 26510
IRIDIUM 38              
1 25043U 97069E   17168.56903820  .00000088  00000-0  23547-4 0  9992
2 25043  86.3960  18.9821 0000860  68.4265 291.7023 14.36033345 26523
IRIDIUM 42              
1 25077U 97077A   17168.60728870  .00000137  00000-0  41620-4 0  9990
2 25077  86.3966  21.7342 0001689  84.8609 275.2780 14.34511856 22248
IRIDIUM 44              
1 25078U 97077B   17168.56309759  .00000088  00000-0  22510-4 0  9999
2 25078  86.3958  11.3278 0000416  97.7256 262.3989 14.38127589 23655
IRIDIUM 45              
1 25104U 97082A   17168.41078920  .00000158  00000-0  49230-4 0  9998
2 25104  86.3960 287.1176 0001472  77.5740 282.5621 14.34214029 20404
IRIDIUM 24              
1 25105U 97082B   17168.59902047  .00000032  00000-0  39841-5 0  9993
2 25105  86.3940 235.2756 0011080 355.1329   4.9760 14.39858551 22664
IRIDIUM 47              
1 25106U 97082C   17168.36929183  .00000161  00000-0  50583-4 0  9997
2 25106  86.3970 255.2065 0002409  90.1481 269.9990 14.34216042 20397
IRIDIUM 49              
1 25108U 97082E   17168.32455211  .00000168  00000-0  52982-4 0  9993
2 25108  86.3972 255.3277 0002358  91.2697 332.5588 14.34216127 20395
IRIDIUM 52              
1 25169U 98010A   17168.55078919 -.00000065  00000-0 -30277-4 0  9994
2 25169  86.3946 350.2382 0002107  88.2784 271.8653 14.34215155 11556
IRIDIUM 56              
1 25170U 98010B   17168.54441588 -.00000130  00000-0 -53531-4 0  9992
2 25170  86.3942 350.3472 0001943  82.9923 277.1493 14.34212940 11738
IRIDIUM 54              
1 25171U 98010C   17168.57620221 -.00000064  00000-0 -29991-4 0  9998
2 25171  86.3947 350.2485 0002124  88.1563 271.9876 14.34213350 12001
IRIDIUM 50              
1 25172U 98010D   17168.53807454 -.00000111  00000-0 -46647-4 0  9990
2 25172  86.3946 350.2205 0002204  88.8284 271.3165 14.34214370 11532
IRIDIUM 53              
1 25173U 98010E   17168.55720543 -.00000071  00000-0 -32388-4 0  9998
2 25173  86.3947 350.2189 0002108  88.2675 271.8762 14.34213625 11558
IRIDIUM 51              
1 25262U 98018A   17167.87505988  .00000131  00000-0  39590-4 0  9990
2 25262  86.3961 319.1527 0002529  93.2456 266.9030 14.34215073 10879
IRIDIUM 61              
1 25263U 98018B   17168.46489206  .00000089  00000-0  24837-4 0  9991
2 25263  86.3952 318.7260 0002256  92.9370 267.2084 14.34213662  6675
IRIDIUM 55              
1 25272U 98019A   17168.53765415  .00000161  00000-0  50344-4 0  9992
2 25272  86.3961 286.8480 0002318  93.5620 266.5841 14.34217315  5905
IRIDIUM 57              
1 25273U 98019B   17168.57429081  .00000026  00000-0  22860-5 0  9996
2 25273  86.3970 287.1427 0002328  94.2563 265.8899 14.34269343  5909
IRIDIUM 58              
1 25274U 98019C   17168.37908073  .00000157  00000-0  48879-4 0  9990
2 25274  86.3966 287.4198 0002349  91.6744 268.4721 14.34214001  6093
IRIDIUM 59              
1 25275U 98019D   17168.38542200  .00000147  00000-0  45324-4 0  9999
2 25275  86.3962 287.2700 0002434  94.3859 265.7614 14.34213861  6093
IRIDIUM 60              
1 25276U 98019E   17168.39180210  .00000214  00000-0  69227-4 0  9993
2 25276  86.3958 286.8869 0002293  94.4529 265.6929 14.34218065  6097
IRIDIUM 62              
1 25285U 98021A   17168.56249258  .00000111  00000-0  32472-4 0  9991
2 25285  86.3975 223.7398 0002411  89.9501 270.1972 14.34220693  5081
IRIDIUM 63              
1 25286U 98021B   17168.58644939  .00000129  00000-0  38716-4 0  9995
2 25286  86.4007 224.1402 0002531  90.6844  22.0718 14.34665750  4822
